ONEWEB-0320             
1 49190U 21083E   24233.56135473  .00000006  00000+0 -16947-4 0  9992
2 49190  87.9106 107.9800 0001804  79.9537 280.1798 13.18683309142255
ONEWEB-0321             
1 49191U 21083F   24233.52601165  .00000022  00000+0  22654-4 0  9994
2 49191  87.9194  46.8499 0001532  94.9369 265.1939 13.20769421148963
ONEWEB-0322             
1 49192U 21083G   24233.59112796  .00000211  00000+0  54177-3 0  9993
2 49192  87.8879  92.7139 0001385  94.6986 265.4301 13.13469966143540
ONEWEB-0324             
1 49193U 21083H   24233.62300516  .00000006  00000+0 -18579-4 0  9997
2 49193  87.9107 107.9485 0002011  85.2894 274.8468 13.18684076142284
ONEWEB-0325             
1 49194U 21083J   24233.62774163 -.00000008  00000+0 -53308-4 0  9993
2 49194  87.9106 107.9624 0001721  79.8452 280.2874 13.18687469142297
ONEWEB-0326             
1 49195U 21083K   24233.18672146  .00000012  00000+0 -28420-5 0  9995
2 49195  87.9105 108.0478 0002306  75.4543 284.6844 13.18684778142227
ONEWEB-0327             
1 49196U 21083L   24233.61588812 -.00000343  00000+0 -90354-3 0  9991
2 49196  87.9105 107.9750 0002089  72.0706 288.0654 13.18687108142307
ONEWEB-0328             
1 49197U 21083M   24233.58159753 -.00000014  00000+0 -72034-4 0  9997
2 49197  87.8867  92.6933 0001833  83.6125 276.5213 13.13471702143528
